NORAD_CAT_ID,OBJECT_NAME,OBJECT_TYPE,EPOCH,MEAN_MOTION,ECCENTRICITY,INCLINATION,RA_OF_ASC_NODE,ARG_OF_PERICENTER,MEAN_ANOMALY,BSTAR,MEAN_MOTION_DOT,MEAN_MOTION_DDOT,TLE_LINE0,TLE_LINE1,TLE_LINE2,SEMIMAJOR_AXIS,PERIOD,APOGEE,PERIGEE,DECAYED
53839.0,STARLINK-4784,PAYLOAD,2024-07-19 10:42:05,15.0884232,0.0001561,53.22,99.9835,100.0502,260.0666,-6.4117e-05,-1.308e-05,0.0,0 STARLINK-4784,1 53839U 22114X   24201.44589377 -.00001308  00000-0 -64117-4 0  9991,2 53839  53.2200  99.9835 0001561 100.0502 260.0666 15.08842320102110,6917.873,95.437,540.818,538.658,0.0
53839.0,STARLINK-4784,PAYLOAD,2024-07-19 21:49:47,15.08833461,0.0001301,53.2182,97.9057,84.3969,275.7171,0.00020881,3.036e-05,0.0,0 STARLINK-4784,1 53839U 22114X   24201.90957433  .00003036  00000-0  20881-3 0  9991,2 53839  53.2182  97.9057 0001301  84.3969 275.7171 15.08833461102723,6917.9,95.438,540.665,538.865,0.0
53839.0,STARLINK-4784,PAYLOAD,2024-07-20 02:35:55,15.08849498,0.0001381,53.2182,97.0113,96.6514,263.4635,0.00017106,2.436e-05,0.0,0 STARLINK-4784,1 53839U 22114X   24202.10828601  .00002436  00000-0  17106-3 0  9997,2 53839  53.2182  97.0113 0001381  96.6514 263.4635 15.08849498102217,6917.851,95.437,540.672,538.761,0.0
53839.0,STARLINK-4784,PAYLOAD,2024-07-20 10:32:52,15.0884088,0.0001485,53.2183,95.5219,125.0599,235.0533,9.9433e-05,1.295e-05,0.0,0 STARLINK-4784,1 53839U 22114X   24202.43949257  .00001295  00000-0  99433-4 0  9990,2 53839  53.2183  95.5219 0001485 125.0599 235.0533 15.08840880102266,6917.878,95.437,540.77,538.715,0.0
53839.0,STARLINK-4784,PAYLOAD,2024-07-20 23:15:57,15.08844144,0.0001696,53.2187,93.1497,103.1831,256.9351,0.00016718,2.374e-05,0.0,0 STARLINK-4784,1 53839U 22114X   24202.96941254  .00002374  00000-0  16718-3 0  9990,2 53839  53.2187  93.1497 0001696 103.1831 256.9351 15.08844144102887,6917.868,95.437,540.906,538.559,0.0
53839.0,STARLINK-4784,PAYLOAD,2024-07-21 19:55:58,15.08843711,0.0001585,53.2186,89.284,109.2922,250.8242,4.8774e-05,4.88e-06,0.0,0 STARLINK-4784,1 53839U 22114X   24203.83053291  .00000488  00000-0  48774-4 0  9994,2 53839  53.2186  89.2840 0001585 109.2922 250.8242 15.08843711102475,6917.869,95.437,540.831,538.638,0.0
53839.0,STARLINK-4784,PAYLOAD,2024-07-21 21:31:21,15.0884537,0.0001626,53.2181,88.9858,108.2381,251.8788,7.0096e-05,8.28e-06,0.0,0 STARLINK-4784,1 53839U 22114X   24203.89677228  .00000828  00000-0  70096-4 0  9992,2 53839  53.2181  88.9858 0001626 108.2381 251.8788 15.08845370103020,6917.864,95.437,540.854,538.604,0.0
53839.0,STARLINK-4784,PAYLOAD,2024-07-22 02:17:29,15.08855416,0.000192,53.2184,88.0934,132.7117,227.4037,-3.59e-05,-8.6e-06,0.0,0 STARLINK-4784,1 53839U 22114X   24204.09548575 -.00000860  00000-0 -35900-4 0  9990,2 53839  53.2184  88.0934 0001920 132.7117 227.4037 15.08855416102516,6917.833,95.437,541.026,538.37,0.0
53839.0,STARLINK-4784,PAYLOAD,2024-07-22 22:57:31,15.08824704,0.0001683,53.2173,84.2275,118.3133,241.8029,0.00038944,5.913e-05,0.0,0 STARLINK-4784,1 53839U 22114X   24204.95661515  .00005913  00000-0  38944-3 0  9997,2 53839  53.2173  84.2275 0001683 118.3133 241.8029 15.08824704103185,6917.927,95.439,540.956,538.628,0.0
53839.0,STARLINK-4784,PAYLOAD,2024-07-23 08:29:47,15.08869098,0.0001232,53.2186,82.4482,112.55,247.5623,0.00031488,4.731e-05,0.0,0 STARLINK-4784,1 53839U 22114X   24205.35402725  .00004731  00000-0  31488-3 0  9991,2 53839  53.2186  82.4482 0001232 112.5500 247.5623 15.08869098102708,6917.791,95.436,540.509,538.804,0.0
53839.0,STARLINK-4784,PAYLOAD,2024-07-23 14:51:20,15.08872423,0.0001282,53.2165,81.2607,95.5622,264.5516,0.00031475,4.729e-05,0.0,0 STARLINK-4784,1 53839U 22114X   24205.61899114  .00004729  00000-0  31475-3 0  9995,2 53839  53.2165  81.2607 0001282  95.5622 264.5516 15.08872423103281,6917.781,95.436,540.533,538.759,0.0
53839.0,STARLINK-4784,PAYLOAD,2024-07-23 16:26:44,15.08870238,0.0001482,53.2176,80.9626,93.7632,266.353,0.00033148,4.996e-05,0.0,0 STARLINK-4784,1 53839U 22114X   24205.68523161  .00004996  00000-0  33148-3 0  9993,2 53839  53.2176  80.9626 0001482  93.7632 266.3530 15.08870238102752,6917.788,95.436,540.678,538.628,0.0
53839.0,STARLINK-4784,PAYLOAD,2024-07-24 01:59:01,15.08877765,0.0001843,53.2172,79.177,90.3263,269.7941,0.00039073,5.942e-05,0.0,0 STARLINK-4784,1 53839U 22114X   24206.08265790  .00005942  00000-0  39073-3 0  9994,2 53839  53.2172  79.1770 0001843  90.3263 269.7941 15.08877765102814,6917.765,95.435,540.905,538.355,0.0
53839.0,STARLINK-4784,PAYLOAD,2024-07-24 22:39:01,15.08869893,0.0001102,53.2184,75.3126,79.6455,280.4662,-8.7887e-05,-1.687e-05,0.0,0 STARLINK-4784,1 53839U 22114X   24206.94376393 -.00001687  00000-0 -87887-4 0  9992,2 53839  53.2184  75.3126 0001102  79.6455 280.4662 15.08869893103488,6917.789,95.436,540.416,538.892,0.0
53839.0,STARLINK-4784,PAYLOAD,2024-07-25 00:14:26,15.08847301,0.0001351,53.2192,75.0153,74.9331,285.181,-0.00019383,-3.372e-05,0.0,0 STARLINK-4784,1 53839U 22114X   24207.01002738 -.00003372  00000-0 -19383-3 0  9998,2 53839  53.2192  75.0153 0001351  74.9331 285.1810 15.08847301102959,6917.858,95.437,540.658,538.788,0.0
53839.0,STARLINK-4784,PAYLOAD,2024-07-25 14:32:57,15.08818698,0.0001811,53.2147,72.3356,74.4822,285.637,-0.00042571,-7.053e-05,0.0,0 STARLINK-4784,1 53839U 22114X   24207.60621559 -.00007053  00000-0 -42571-3 0  9996,2 53839  53.2147  72.3356 0001811  74.4822 285.6370 15.08818698103049,6917.946,95.439,541.063,538.558,0.0
53839.0,STARLINK-4784,PAYLOAD,2024-07-25 22:29:53,15.08814924,0.0001894,53.2172,70.8514,80.8046,279.3161,-0.00038844,-6.461e-05,0.0,0 STARLINK-4784,1 53839U 22114X   24207.93741952 -.00006461  00000-0 -38844-3 0  9992,2 53839  53.2172  70.8514 0001894  80.8046 279.3161 15.08814924103637,6917.957,95.439,541.132,538.512,0.0
53839.0,STARLINK-4784,PAYLOAD,2024-07-26 14:23:44,15.0881822,9.18e-05,53.2194,67.872,133.6239,226.483,-0.00018734,-3.266e-05,0.0,0 STARLINK-4784,1 53839U 22114X   24208.59981560 -.00003266  00000-0 -18734-3 0  9992,2 53839  53.2194  67.8720 0000918 133.6239 226.4830 15.08818220103733,6917.947,95.439,540.447,539.177,0.0
53839.0,STARLINK-4784,PAYLOAD,2024-07-26 20:45:16,15.08812222,8.68e-05,53.2161,66.69,77.8914,282.2175,8.9709e-05,1.139e-05,0.0,0 STARLINK-4784,1 53839U 22114X   24208.86477362  .00001139  00000-0  89709-4 0  9998,2 53839  53.2161  66.6900 0000868  77.8914 282.2175 15.08812222103230,6917.965,95.439,540.431,539.23,0.0
53839.0,STARLINK-4784,PAYLOAD,2024-07-26 22:20:39,15.08815909,0.0001217,53.2149,66.3938,71.2411,288.8713,0.0001138,1.523e-05,0.0,0 STARLINK-4784,1 53839U 22114X   24208.93101214  .00001523  00000-0  11380-3 0  9992,2 53839  53.2149  66.3938 0001217  71.2411 288.8713 15.08815909103788,6917.954,95.439,540.661,538.977,0.0
53839.0,STARLINK-4784,PAYLOAD,2024-07-27 20:36:04,15.08815169,0.000163,53.216,62.2318,57.7436,302.3714,0.00036955,5.594e-05,0.0,0 STARLINK-4784,1 53839U 22114X   24209.85838632  .00005594  00000-0  36955-3 0  9992,2 53839  53.2160  62.2318 0001630  57.7436 302.3714 15.08815169103920,6917.956,95.439,540.949,538.694,0.0
53839.0,STARLINK-4784,PAYLOAD,2024-07-27 22:11:27,15.0882158,0.0001124,53.2179,61.9283,102.092,258.0198,0.00030435,4.557e-05,0.0,0 STARLINK-4784,1 53839U 22114X   24209.92462251  .00004557  00000-0  30435-3 0  9995,2 53839  53.2179  61.9283 0001124 102.0920 258.0198 15.08821580103395,6917.937,95.439,540.579,539.024,0.0
53839.0,STARLINK-4784,PAYLOAD,2024-07-28 20:26:51,15.08843967,0.000121,53.2181,57.7655,102.7522,257.3606,0.0001295,1.774e-05,0.0,0 STARLINK-4784,1 53839U 22114X   24210.85198011  .00001774  00000-0  12950-3 0  9999,2 53839  53.2181  57.7655 0001210 102.7522 257.3606 15.08843967103530,6917.868,95.437,540.57,538.896,0.0
53839.0,STARLINK-4784,PAYLOAD,2024-07-29 13:56:05,15.08841828,0.0001266,53.2184,54.4939,103.3907,256.7227,9.2855e-05,1.19e-05,0.0,0 STARLINK-4784,1 53839U 22114X   24211.58062306  .00001190  00000-0  92855-4 0  9992,2 53839  53.2184  54.4939 0001266 103.3907 256.7227 15.08841828104185,6917.875,95.437,540.616,538.864,0.0
53839.0,STARLINK-4784,PAYLOAD,2024-07-29 20:17:38,15.08844863,0.0001165,53.2183,53.3062,85.8803,274.2322,0.0001137,1.522e-05,0.0,0 STARLINK-4784,1 53839U 22114X   24211.84558107  .00001522  00000-0  11370-3 0  9991,2 53839  53.2183  53.3062 0001165  85.8803 274.2322 15.08844863104224,6917.866,95.437,540.536,538.925,0.0
53839.0,STARLINK-4784,PAYLOAD,2024-07-29 21:53:01,15.08845816,0.0001166,53.2183,53.0078,84.8711,275.2414,0.0001201,1.624e-05,0.0,0 STARLINK-4784,1 53839U 22114X   24211.91182020  .00001624  00000-0  12010-3 0  9991,2 53839  53.2183  53.0078 0001166  84.8711 275.2414 15.08845816103698,6917.863,95.437,540.534,538.921,0.0
53839.0,STARLINK-4784,PAYLOAD,2024-07-30 20:08:25,15.08840704,0.000116,53.2181,48.8452,83.6649,276.4475,2.936e-05,1.79e-06,0.0,0 STARLINK-4784,1 53839U 22114X   24212.83918546  .00000179  00000-0  29360-4 0  9994,2 53839  53.2181  48.8452 0001160  83.6649 276.4475 15.08840704103832,6917.878,95.438,540.546,538.941,0.0
53839.0,STARLINK-4784,PAYLOAD,2024-07-31 05:40:44,15.08836713,0.0001141,53.2182,47.0608,85.7841,274.3282,9.4532e-05,1.217e-05,0.0,0 STARLINK-4784,1 53839U 22114X   24213.23662738  .00001217  00000-0  94532-4 0  9995,2 53839  53.2182  47.0608 0001141  85.7841 274.3282 15.08836713104438,6917.89,95.438,540.545,538.966,0.0
53839.0,STARLINK-4784,PAYLOAD,2024-07-31 18:23:49,15.08836999,0.0001185,53.2183,44.6818,82.2206,277.8921,1.0334e-06,-2.71e-06,0.0,0 STARLINK-4784,1 53839U 22114X   24213.76654958 -.00000271  00000-0  10334-5 0  9997,2 53839  53.2183  44.6818 0001185  82.2206 277.8921 15.08836999104513,6917.89,95.438,540.574,538.935,0.0
53839.0,STARLINK-4784,PAYLOAD,2024-08-01 13:28:27,15.08841873,0.0001223,53.2188,41.1148,88.7627,271.3505,0.00013144,1.805e-05,0.0,0 STARLINK-4784,1 53839U 22114X   24214.56142363  .00001805  00000-0  13144-3 0  9991,2 53839  53.2188  41.1148 0001223  88.7627 271.3505 15.08841873104094,6917.875,95.437,540.586,538.894,0.0
